H1 CPF 01  gfz 2022 11 04 13  8082 terrasarx 
H2 0702601  6201 31698    2022 11 04 12 59 42 2022 11 09 00 00 42   120 1 1  0 0 0
H9
10 0 59891  65502.000000  0    4123166.266   -893989.370   5435403.892
10 0 59891  65622.000000  0    3350140.217   -954533.210   5932510.447
10 0 59891  65742.000000  0    2517827.830   -984362.953   6325293.046
10 0 59891  65862.000000  0    1641327.413   -982057.725   6606881.741
10 0 59891  65982.000000  0     736514.325   -947027.620   6772357.870
10 0 59891  66102.000000  0    -180249.634   -879534.048   6818834.132
10 0 59891  66222.000000  0   -1092411.974   -780690.865   6745500.418
10 0 59891  66342.000000  0   -1983526.925   -652446.165   6553636.504
10 0 59891  66462.000000  0   -2837550.276   -497544.467   6246591.000
10 0 59891  66582.000000  0   -3639127.957   -319470.282   5829727.807
10 0 59891  66702.000000  0   -4373875.103   -122373.946   5310338.908
10 0 59891  66822.000000  0   -5028640.067     89019.131   4697522.912
10 0 59891  66942.000000  0   -5591747.474    309513.796   4002030.584
10 0 59891  67062.000000  0   -6053215.241    533563.756   3236079.403
10 0 59891  67182.000000  0   -6404941.110    755400.693   2413140.938
10 0 59891  67302.000000  0   -6640854.874    969171.197   1547702.345
10 0 59891  67422.000000  0   -6757031.619   1169077.539    655006.900
10 0 59891  67542.000000  0   -6751762.676   1349519.416   -249222.219
10 0 59891  67662.000000  0   -6625580.718   1505232.751  -1149068.240
10 0 59891  67782.000000  0   -6381239.307   1631421.279  -2028709.354
10 0 59891  67902.000000  0   -6023649.510   1723879.123  -2872704.173
10 0 59891  68022.000000  0   -5559772.732   1779100.625  -3666269.699
10 0 59891  68142.000000  0   -4998473.000   1794373.290  -4395542.640
10 0 59891  68262.000000  0   -4350335.114   1767853.236  -5047819.151
10 0 59891  68382.000000  0   -3627453.514   1698621.468  -5611769.606
10 0 59891  68502.000000  0   -2843198.386   1586720.251  -6077625.747
10 0 59891  68622.000000  0   -2011963.468   1433168.754  -6437339.673
10 0 59891  68742.000000  0   -1148898.936   1239958.542  -6684711.408
10 0 59891  68862.000000  0    -269637.188   1010028.481  -6815483.889
10 0 59891  68982.000000  0     609984.235    747220.563  -6827407.434
10 0 59891  69102.000000  0    1474200.104    456217.172  -6720276.156
10 0 59891  69222.000000  0    2307594.922    142459.321  -6495931.848
10 0 59891  69342.000000  0    3095371.777   -187951.912  -6158235.423
10 0 59891  69462.000000  0    3823611.960   -528369.729  -5713007.292
10 0 59891  69582.000000  0    4479518.811   -871730.341  -5167936.280
10 0 59891  69702.000000  0    5051645.829  -1210694.354  -4532459.576
10 0 59891  69822.000000  0    5530103.724  -1537798.759  -3817610.215
10 0 59891  69942.000000  0    5906740.923  -1845615.844  -3035834.750
10 0 59891  70062.000000  0    6175293.906  -2126916.433  -2200782.918
10 0 59891  70182.000000  0    6331502.919  -2374833.706  -1327071.927
10 0 59891  70302.000000  0    6373189.612  -2583022.997   -430029.860
10 0 59891  70422.000000  0    6300294.518  -2745814.082    474577.376
10 0 59891  70542.000000  0    6114872.388  -2858351.519   1370830.118
10 0 59891  70662.000000  0    5821044.848  -2916719.334   2242944.636
10 0 59891  70782.000000  0    5424909.742  -2918046.896   3075560.052
10 0 59891  70902.000000  0    4934411.558  -2860592.583   3854016.953
10 0 59891  71022.000000  0    4359175.652  -2743802.691   4564619.738
10 0 59891  71142.000000  0    3710313.536  -2568346.730   5194880.122
10 0 59891  71262.000000  0    3000199.257  -2336127.010   5733737.484
10 0 59891  71382.000000  0    2242225.389  -2050261.285   6171748.992
10 0 59891  71502.000000  0    1450544.942  -1715041.002   6501249.797
10 0 59891  71622.000000  0     639803.176  -1335865.743   6716481.279
10 0 59891  71742.000000  0    -175135.509   -919154.717   6813685.627
10 0 59891  71862.000000  0    -979459.918   -472236.932   6791166.521
10 0 59891  71982.000000  0   -1758679.909     -3222.466   6649316.475
10 0 59891  72102.000000  0   -2498886.252    479144.302   6390610.504
10 0 59891  72222.000000  0   -3186998.609    965646.844   6019566.129
10 0 59891  72342.000000  0   -3810998.257   1446771.374   5542669.950
10 0 59891  72462.000000  0   -4360142.396   1912891.994   4968270.950
10 0 59891  72582.000000  0   -4825155.935   2354463.185   4306440.221
10 0 59891  72702.000000  0   -5198395.227   2762215.968   3568798.060
10 0 59891  72822.000000  0   -5473980.749   3127352.554   2768312.175
10 0 59891  72942.000000  0   -5647896.429   3441735.959   1919070.145
10 0 59891  73062.000000  0   -5718053.508   3698070.894   1036028.445
10 0 59891  73182.000000  0   -5684314.358   3890069.393    134741.710
10 0 59891  73302.000000  0   -5548476.807   4012597.081   -768918.911
10 0 59891  73422.000000  0   -5314220.042   4061797.303  -1659054.053
10 0 59891  73542.000000  0   -4987012.068   4035189.527  -2520025.803
10 0 59891  73662.000000  0   -4573980.169   3931738.093  -3336739.691
10 0 59891  73782.000000  0   -4083750.248   3751890.982  -4094912.888
10 0 59891  73902.000000  0   -3526259.738   3497588.478  -4781322.856
10 0 59891  74022.000000  0   -2912549.174   3172242.225  -5384032.831
10 0 59891  74142.000000  0   -2254539.575   2780686.156  -5892590.651
10 0 59891  74262.000000  0   -1564797.878   2329100.681  -6298201.101
10 0 59891  74382.000000  0    -856295.504   1824910.539  -6593866.278
10 0 59891  74502.000000  0    -142166.882   1276660.990  -6774494.672
10 0 59891  74622.000000  0     564529.183    693873.219  -6836979.252
10 0 59891  74742.000000  0    1251042.167     86882.206  -6780246.432
10 0 59891  74862.000000  0    1905155.672   -533343.112  -6605272.396
10 0 59891  74982.000000  0    2515399.198  -1155392.965  -6315067.149
10 0 59891  75102.000000  0    3071246.079  -1767621.310  -5914628.671
10 0 59891  75222.000000  0    3563293.733  -2358358.357  -5410866.100
10 0 59891  75342.000000  0    3983426.015  -2916131.021  -4812492.876
10 0 59891  75462.000000  0    4324951.420  -3429886.063  -4129885.612
10 0 59891  75582.000000  0    4582714.471  -3889209.593  -3374914.171
10 0 59891  75702.000000  0    4753180.737  -4284540.750  -2560744.117
10 0 59891  75822.000000  0    4834491.316  -4607374.320  -1701611.623
10 0 59891  75942.000000  0    4826484.990  -4850447.284   -812575.564
10 0 59891  76062.000000  0    4730685.587  -5007904.333     90750.048
10 0 59891  76182.000000  0    4550254.796  -5075436.438    992476.622
10 0 59891  76302.000000  0    4289912.326  -5050389.428   1876729.166
10 0 59891  76422.000000  0    3955822.922  -4931838.578   2727934.859
10 0 59891  76542.000000  0    3555455.685  -4720629.059   3531104.873
10 0 59891  76662.000000  0    3097418.005  -4419379.886   4272105.075
10 0 59891  76782.000000  0    2591268.892  -4032451.431   4937908.414
10 0 59891  76902.000000  0    2047316.902  -3565878.194   5516824.568
10 0 59891  77022.000000  0    1476407.174  -3027269.056   5998703.599
10 0 59891  77142.000000  0     889702.124  -2425676.324   6375109.195
10 0 59891  77262.000000  0     298461.465  -1771438.758   6639459.933
10 0 59891  77382.000000  0    -286174.290  -1076000.809   6787137.769
10 0 59891  77502.000000  0    -853392.622   -351710.463   6815564.373
10 0 59891  77622.000000  0   -1392907.965    388400.619   6724243.040
10 0 59891  77742.000000  0   -1895147.627   1130851.086   6514766.670
10 0 59891  77862.000000  0   -2351421.455   1861954.515   6190791.677
10 0 59891  77982.000000  0   -2754072.999   2568070.992   5757978.208
10 0 59891  78102.000000  0   -3096609.698   3235862.505   5223897.491
10 0 59891  78222.000000  0   -3373810.986   3852547.314   4597905.849
10 0 59891  78342.000000  0   -3581811.197   4406149.209   3890986.403
10 0 59891  78462.000000  0   -3718155.342   4885736.261   3115559.892
10 0 59891  78582.000000  0   -3781826.309   5281643.738   2285266.963
10 0 59891  78702.000000  0   -3773242.214   5585674.356   1414725.303
10 0 59891  78822.000000  0   -3694224.143   5791271.663    519268.219
10 0 59891  78942.000000  0   -3547936.347   5893664.184   -385331.925
10 0 59891  79062.000000  0   -3338797.694   5889973.730  -1283151.770
10 0 59891  79182.000000  0   -3072367.466   5779284.058  -2158407.794
10 0 59891  79302.000000  0   -2755206.476   5562668.222  -2995742.090
10 0 59891  79422.000000  0   -2394720.970   5243176.886  -3780495.196
10 0 59891  79542.000000  0   -1998993.600   4825787.616  -4498964.259
10 0 59891  79662.000000  0   -1576603.907   4317316.252  -5138638.467
10 0 59891  79782.000000  0   -1136445.057   3726296.299  -5688409.454
10 0 59891  79902.000000  0    -687538.986   3062827.637  -6138756.279
10 0 59891  80022.000000  0    -238853.744   2338396.449  -6481900.061
10 0 59891  80142.000000  0     200872.066   1565672.738  -6711926.021
10 0 59891  80262.000000  0     623294.534    758289.202  -6824875.871
10 0 59891  80382.000000  0    1020618.936    -69396.090  -6818808.901
10 0 59891  80502.000000  0    1385739.924   -902550.504  -6693831.162
10 0 59891  80622.000000  0    1712364.946  -1726126.078  -6452092.313
10 0 59891  80742.000000  0    1995120.624  -2525123.811  -6097752.981
10 0 59891  80862.000000  0    2229640.811  -3284861.040  -5636921.973
10 0 59891  80982.000000  0    2412634.974  -3991240.584  -5077562.639
10 0 59891  81102.000000  0    2541935.039  -4631013.980  -4429364.479
10 0 59891  81222.000000  0    2616519.539  -5192032.278  -3703585.755
10 0 59891  81342.000000  0    2636514.744  -5663483.926  -2912868.269
10 0 59891  81462.000000  0    2603172.625  -6036112.770  -2071023.362
10 0 59891  81582.000000  0    2518826.014  -6302410.597  -1192793.746
10 0 59891  81702.000000  0    2386820.458  -6456779.127   -293593.075
10 0 59891  81822.000000  0    2211423.578  -6495653.652    610770.742
10 0 59891  81942.000000  0    1997715.471  -6417587.947   1504379.951
99
